[{"OBJECT_NAME":"ONEWEB-0378","OBJECT_ID":"2021-090AB","EPOCH":"2026-03-09T15:20:32.939232","MEAN_MOTION":13.20769988,"ECCENTRICITY":0.0001502,"INCLINATION":87.9161,"RA_OF_ASC_NODE":294.3226,"ARG_OF_PERICENTER":82.4102,"MEAN_ANOMALY":277.7202,"EPHEMERIS_TYPE":0,"CLASSIFICATION_TYPE":"U","NORAD_CAT_ID":49304,"ELEMENT_SET_NO":999,"REV_AT_EPOCH":21664,"BSTAR":0.00014225,"MEAN_MOTION_DOT":7.1e-7,"MEAN_MOTION_DDOT":0},{"OBJECT_NAME":"FENGYUN 1C DEB","OBJECT_ID":"1999-025AQS","EPOCH":"2026-03-09T01:28:31.050336","MEAN_MOTION":13.67055719,"ECCENTRICITY":0.02345904,"INCLINATION":99.5212,"RA_OF_ASC_NODE":113.2013,"ARG_OF_PERICENTER":48.622,"MEAN_ANOMALY":313.4838,"EPHEMERIS_TYPE":0,"CLASSIFICATION_TYPE":"U","NORAD_CAT_ID":30684,"ELEMENT_SET_NO":999,"REV_AT_EPOCH":94808,"BSTAR":0.0014376814,"MEAN_MOTION_DOT":1.412e-5,"MEAN_MOTION_DDOT":0}]
